{
  "type": "FeatureCollection",
  "features": [
    {
      "type": "Feature",
      "properties": {
        "norad_id": 36420,
        "name": "COSMOS 2251 DEB",
        "group": "cosmos-2251-debris",
        "lat": 9.713865943906216,
        "lon": -102.85727235653786,
        "alt_km": 758.6302721735055,
        "timestamp": "2025-12-24T05:51:20.006662+00:00",
        "meta_object_name": "COSMOS 2251 DEB",
        "meta_object_id": "1993-036AZT",
        "meta_epoch": "2025-12-21T02:55:38.256384",
        "meta_mean_motion": 14.36907864,
        "meta_eccentricity": 0.00184562,
        "meta_inclination": 74.0376,
        "meta_ra_of_asc_node": 260.0713,
        "meta_arg_of_pericenter": 346.0954,
        "meta_mean_anomaly": 80.7548,
        "meta_ephemeris_type": 0,
        "meta_classification_type": "U",
        "meta_norad_cat_id": 36420,
        "meta_element_set_no": 999,
        "meta_rev_at_epoch": 85157,
        "meta_bstar": 0.00010545411,
        "meta_mean_motion_dot": 2.86e-06,
        "meta_mean_motion_ddot": 0,
        "tle_line1": "1 36420U 93036AZT 25355.12197056  .00000286  00000+0  10545-3 0  9990",
        "tle_line2": "2 36420  74.0376 260.0713 0018456 346.0954  80.7548 14.36907864851574"
      },
      "geometry": {
        "type": "Point",
        "coordinates": [
          -102.85727235653786,
          9.713865943906216
        ]
      }
    },
    {
      "type": "Feature",
      "properties": {
        "norad_id": 36430,
        "name": "COSMOS 2251 DEB",
        "group": "cosmos-2251-debris",
        "lat": 14.362401071561635,
        "lon": 91.85902950440914,
        "alt_km": 852.721214536733,
        "timestamp": "2025-12-24T05:51:20.006672+00:00",
        "meta_object_name": "COSMOS 2251 DEB",
        "meta_object_id": "1993-036BAD",
        "meta_epoch": "2025-12-22T23:31:00.132096",
        "meta_mean_motion": 14.27817368,
        "meta_eccentricity": 0.00978453,
        "meta_inclination": 74.0045,
        "meta_ra_of_asc_node": 89.9408,
        "meta_arg_of_pericenter": 238.1166,
        "meta_mean_anomaly": 121.0434,
        "meta_ephemeris_type": 0,
        "meta_classification_type": "U",
        "meta_norad_cat_id": 36430,
        "meta_element_set_no": 999,
        "meta_rev_at_epoch": 64703,
        "meta_bstar": 0.00047484504,
        "meta_mean_motion_dot": 1.209e-05,
        "meta_mean_motion_ddot": 0,
        "tle_line1": "1 36430U 93036BAD 25356.97986264  .00001209  00000+0  47485-3 0  9991",
        "tle_line2": "2 36430  74.0045  89.9408 0097845 238.1166 121.0434 14.27817368647038"
      },
      "geometry": {
        "type": "Point",
        "coordinates": [
          91.85902950440914,
          14.362401071561635
        ]
      }
    },
    {
      "type": "Feature",
      "properties": {
        "norad_id": 36437,
        "name": "COSMOS 2251 DEB",
        "group": "cosmos-2251-debris",
        "lat": -1.6910555830519671,
        "lon": 11.053025512204469,
        "alt_km": 668.4542430039774,
        "timestamp": "2025-12-24T05:51:20.006683+00:00",
        "meta_object_name": "COSMOS 2251 DEB",
        "meta_object_id": "1993-036BAL",
        "meta_epoch": "2025-12-20T18:36:38.364192",
        "meta_mean_motion": 14.70810572,
        "meta_eccentricity": 0.00231641,
        "meta_inclination": 73.942,
        "meta_ra_of_asc_node": 18.3096,
        "meta_arg_of_pericenter": 249.5495,
        "meta_mean_anomaly": 110.3188,
        "meta_ephemeris_type": 0,
        "meta_classification_type": "U",
        "meta_norad_cat_id": 36437,
        "meta_element_set_no": 999,
        "meta_rev_at_epoch": 66169,
        "meta_bstar": 0.00075908188,
        "meta_mean_motion_dot": 4.626e-05,
        "meta_mean_motion_ddot": 0,
        "tle_line1": "1 36437U 93036BAL 25354.77544403  .00004626  00000+0  75908-3 0  9996",
        "tle_line2": "2 36437  73.9420  18.3096 0023164 249.5495 110.3188 14.70810572661696"
      },
      "geometry": {
        "type": "Point",
        "coordinates": [
          11.053025512204469,
          -1.6910555830519671
        ]
      }
    },
    {
      "type": "Feature",
      "properties": {
        "norad_id": 36439,
        "name": "COSMOS 2251 DEB",
        "group": "cosmos-2251-debris",
        "lat": -50.3754978094889,
        "lon": -141.3257587245862,
        "alt_km": 1208.95373522718,
        "timestamp": "2025-12-24T05:51:20.006694+00:00",
        "meta_object_name": "COSMOS 2251 DEB",
        "meta_object_id": "1993-036BAN",
        "meta_epoch": "2025-12-23T10:51:44.620128",
        "meta_mean_motion": 13.47822501,
        "meta_eccentricity": 0.0428705,
        "meta_inclination": 73.9685,
        "meta_ra_of_asc_node": 19.6182,
        "meta_arg_of_pericenter": 349.3248,
        "meta_mean_anomaly": 9.8965,
        "meta_ephemeris_type": 0,
        "meta_classification_type": "U",
        "meta_norad_cat_id": 36439,
        "meta_element_set_no": 999,
        "meta_rev_at_epoch": 58757,
        "meta_bstar": 0.001297403,
        "meta_mean_motion_dot": 1.38e-05,
        "meta_mean_motion_ddot": 0,
        "tle_line1": "1 36439U 93036BAN 25357.45259977  .00001380  00000+0  12974-2 0  9992",
        "tle_line2": "2 36439  73.9685  19.6182 0428705 349.3248   9.8965 13.47822501587573"
      },
      "geometry": {
        "type": "Point",
        "coordinates": [
          -141.3257587245862,
          -50.3754978094889
        ]
      }
    },
    {
      "type": "Feature",
      "properties": {
        "norad_id": 36441,
        "name": "COSMOS 2251 DEB",
        "group": "cosmos-2251-debris",
        "lat": 26.62123953911338,
        "lon": 137.472869761298,
        "alt_km": 543.1379449488313,
        "timestamp": "2025-12-24T05:51:20.006704+00:00",
        "meta_object_name": "COSMOS 2251 DEB",
        "meta_object_id": "1993-036BAQ",
        "meta_epoch": "2025-12-18T05:47:29.908032",
        "meta_mean_motion": 15.06846048,
        "meta_eccentricity": 0.01082047,
        "meta_inclination": 73.8354,
        "meta_ra_of_asc_node": 338.3111,
        "meta_arg_of_pericenter": 76.0854,
        "meta_mean_anomaly": 285.2342,
        "meta_ephemeris_type": 0,
        "meta_classification_type": "U",
        "meta_norad_cat_id": 36441,
        "meta_element_set_no": 999,
        "meta_rev_at_epoch": 87048,
        "meta_bstar": 0.0004365334,
        "meta_mean_motion_dot": 7.404e-05,
        "meta_mean_motion_ddot": 0,
        "tle_line1": "1 36441U 93036BAQ 25352.24131838  .00007404  00000+0  43653-3 0  9994",
        "tle_line2": "2 36441  73.8354 338.3111 0108204  76.0854 285.2342 15.06846048870480"
      },
      "geometry": {
        "type": "Point",
        "coordinates": [
          137.472869761298,
          26.62123953911338
        ]
      }
    },
    {
      "type": "Feature",
      "properties": {
        "norad_id": 36442,
        "name": "COSMOS 2251 DEB",
        "group": "cosmos-2251-debris",
        "lat": -55.7713197995526,
        "lon": -140.37920451456847,
        "alt_km": 470.88174863965924,
        "timestamp": "2025-12-24T05:51:20.006714+00:00",
        "meta_object_name": "COSMOS 2251 DEB",
        "meta_object_id": "1993-036BAR",
        "meta_epoch": "2025-12-21T18:51:31.867200",
        "meta_mean_motion": 15.32486394,
        "meta_eccentricity": 0.00080169,
        "meta_inclination": 73.9482,
        "meta_ra_of_asc_node": 19.8637,
        "meta_arg_of_pericenter": 316.0651,
        "meta_mean_anomaly": 43.9914,
        "meta_ephemeris_type": 0,
        "meta_classification_type": "U",
        "meta_norad_cat_id": 36442,
        "meta_element_set_no": 999,
        "meta_rev_at_epoch": 86054,
        "meta_bstar": 0.0050536247,
        "meta_mean_motion_dot": 0.00162161,
        "meta_mean_motion_ddot": 0,
        "tle_line1": "1 36442U 93036BAR 25355.78578550  .00162161  00000+0  50536-2 0  9992",
        "tle_line2": "2 36442  73.9482  19.8637 0008016 316.0651  43.9914 15.32486394860543"
      },
      "geometry": {
        "type": "Point",
        "coordinates": [
          -140.37920451456847,
          -55.7713197995526
        ]
      }
    },
    {
      "type": "Feature",
      "properties": {
        "norad_id": 36451,
        "name": "COSMOS 2251 DEB",
        "group": "cosmos-2251-debris",
        "lat": 46.490497797277,
        "lon": 116.92841397219729,
        "alt_km": 693.4686942824801,
        "timestamp": "2025-12-24T05:51:20.006725+00:00",
        "meta_object_name": "COSMOS 2251 DEB",
        "meta_object_id": "1993-036BBA",
        "meta_epoch": "2025-12-17T15:51:47.903904",
        "meta_mean_motion": 14.18761243,
        "meta_eccentricity": 0.01833733,
        "meta_inclination": 73.9538,
        "meta_ra_of_asc_node": 326.3887,
        "meta_arg_of_pericenter": 149.6881,
        "meta_mean_anomaly": 211.5024,
        "meta_ephemeris_type": 0,
        "meta_classification_type": "U",
        "meta_norad_cat_id": 36451,
        "meta_element_set_no": 999,
        "meta_rev_at_epoch": 84295,
        "meta_bstar": 0.0004725236,
        "meta_mean_motion_dot": 1.135e-05,
        "meta_mean_motion_ddot": 0,
        "tle_line1": "1 36451U 93036BBA 25351.66097111  .00001135  00000+0  47252-3 0  9999",
        "tle_line2": "2 36451  73.9538 326.3887 0183373 149.6881 211.5024 14.18761243842955"
      },
      "geometry": {
        "type": "Point",
        "coordinates": [
          116.92841397219729,
          46.490497797277
        ]
      }
    }
  ]
}